GLOBALSTAR M027         
1 25884U 99043B   25332.59496632 -.00000005  00000+0  22035-2 0  9990
2 25884  52.0208  92.2973 0020829 255.2234 104.6251 11.04373062159407
GLOBALSTAR M053         
1 25886U 99043D   25332.49451598 -.00000061  00000+0  21513-3 0  9996
2 25886  51.9940 148.4595 0003594  24.4280   3.2692 11.27668815137981
GLOBALSTAR M058         
1 25907U 99049A   25332.41489631 -.00000020  00000+0  86649-3 0  9993
2 25907  51.9971  30.6403 0001908 215.6922 144.3785 11.93206047561140
GLOBALSTAR M050         
1 25908U 99049B   25332.44029493 -.00000044  00000+0  49448-3 0  9995
2 25908  52.0017  25.9770 0008798   0.9633  11.9189 12.07460385168037
GLOBALSTAR M055         
1 25910U 99049D   25332.48330414 -.00000072  00000+0  19363-3 0  9994
2 25910  52.0020 249.0910 0007507 107.2641 252.9033 12.29436777188495
